{"type":"Feature","properties":{"sourceRepository":"LonnyGomes/CountryGeoJSONCollection","sourceCommit":"5120290da88f3f205f74aa55f3c8fa1f19d1bc8b","sourcePath":"geojson/IDN.geojson","naturalEarthVersion":"4.1.0","sourceComponentIndices":[1,10,129,131,135],"license":"Natural Earth public domain"},"geometry":{"type":"MultiPolygon","coordinates":[[[[124.45053144599997,-9.18018971099991],[124.46583092500006,-9.179375908999926],[124.51783287899998,-9.177829684999947],[124.563243035,-9.170830987999919],[124.60434004,-9.156345309999946],[124.66797936300006,-9.113051039999958],[124.671153191,-9.107517184999947],[124.67318769599997,-9.099297783999928],[124.68360436300007,-9.07480234199994],[124.68799889400005,-9.069512627999925],[124.69157962300001,-9.067803643999921],[124.758067254,-9.04794687299994],[124.76734459700002,-9.042901299999924],[124.78882897199999,-9.01897551899992],[124.824961785,-9.008070570999903],[124.84034264400006,-9.001071872999942],[124.86988365999999,-8.994398695999903],[124.89714603,-8.974541924999924],[124.91928144599999,-8.962090752999925],[124.91950720683658,-8.962015500097577],[124.92248295100002,-8.986323750999956],[124.90915043100007,-9.020326842999904],[124.90791019700006,-9.037483418999953],[124.91297448700001,-9.052779641999917],[124.92129439300001,-9.065492044999882],[124.93302494300005,-9.074483743999918],[124.9478560800001,-9.078514505999918],[124.96589115399998,-9.077274271999967],[124.97891361500002,-9.072003274999942],[125.00444177300008,-9.055570169999966],[125.05182906100006,-9.03500294999989],[125.06531661000011,-9.023220723999897],[125.068572225,-9.015882669999895],[125.07301639900001,-8.996452331999917],[125.07647871900005,-8.990767923999966],[125.08681400600007,-8.986220397999928],[125.09151656100002,-8.98859751399989],[125.09528894100008,-8.994798684999877],[125.10252364200002,-9.001309915999938],[125.12133386200006,-9.011851907999896],[125.13942061400004,-9.024771015999915],[125.15399336800013,-9.040790709999952],[125.16236495000005,-9.060634460999948],[125.162003214,-9.082338561999945],[125.14500166900004,-9.145177103999925],[125.14696537300004,-9.154478861999861],[125.15120284100007,-9.165020852999914],[125.1526537320001,-9.170824418999953],[125.15389001499996,-9.175769550999929],[125.15063440000007,-9.18538136799995],[125.1425212,-9.189102070999864],[125.11792321800013,-9.187551777999941],[125.10696781400006,-9.188481953999895],[125.09146488400002,-9.196750182999933],[125.082576538,-9.205535176999929],[125.07394657400008,-9.211322936999903],[125.05968387900008,-9.210496113999879],[125.05337935400004,-9.206672057999937],[125.04144209800005,-9.193236185999892],[125.03451745599997,-9.188171895999913],[125.027696168,-9.186311543999903],[125.00723230100002,-9.186104837999947],[124.97446944200013,-9.191892598999912],[124.95793298400005,-9.211943053999958],[124.95410892800008,-9.241501973999986],[124.96015507000007,-9.276021829999875],[124.96599450700003,-9.293385111999894],[124.9728157960001,-9.304650572999945],[124.99669030800008,-9.325837910999907],[125.01787764500003,-9.338963724999884],[125.02340702400012,-9.345578307999883],[125.02480228700003,-9.351986184999914],[125.02278690600006,-9.367695820999883],[125.02376875800003,-9.374723815999898],[125.04629968300004,-9.40986378899994],[125.05093075400006,-9.424696842999948],[125.06161543100005,-9.485772393999921],[125.06128991000001,-9.486016533999928],[125.03077233200007,-9.507500908999928],[125.00196373800006,-9.536309502999925],[124.986582879,-9.577325127999925],[124.979746941,-9.64902109199994],[124.97071373800006,-9.662367445999903],[124.87476647199999,-9.724704684999947],[124.84693444099999,-9.74822356599992],[124.75847415500003,-9.850762627999925],[124.74781334700002,-9.88616301899992],[124.73454837300002,-9.899509372999942],[124.67847741,-9.930108330999927],[124.64128665500002,-9.956638278999943],[124.60808353,-9.986748955999927],[124.56031334700002,-10.015232028999943],[124.54078209699999,-10.036553643999921],[124.524668816,-10.083428643999921],[124.510020379,-10.096286716999938],[124.49935957099999,-10.111993096999923],[124.45199629,-10.146416924999924],[124.41846764400007,-10.163832289999958],[124.38086998800004,-10.17050546699994],[124.27198326900007,-10.16619231599992],[124.19678795700004,-10.173760674999924],[124.16480553500001,-10.180596612999917],[124.15365644599999,-10.178806247999942],[124.13412519599999,-10.172133070999902],[124.12240644599999,-10.172539971999921],[124.10767662899998,-10.184340101999906],[124.08741295700005,-10.225681247999942],[124.07813561300004,-10.234633070999903],[124.05738366,-10.238946221999921],[124.04851321700002,-10.249607028999943],[124.04346764400007,-10.263116143999921],[124.03386478000002,-10.276136976999906],[124.019786004,-10.281019789999958],[123.932790561,-10.294854424999924],[123.82634524800001,-10.363946221999921],[123.79932701900006,-10.374688408999928],[123.78736412900001,-10.368340752999925],[123.77816816499998,-10.358330987999919],[123.757090691,-10.360446872999942],[123.71908613399998,-10.371758721999923],[123.698985222,-10.36736419099992],[123.67872155000006,-10.356622002999925],[123.65886478000002,-10.349297783999926],[123.63965905000006,-10.355075778999945],[123.617442254,-10.36630624799994],[123.60206139400006,-10.361423434999946],[123.574473504,-10.337660414999956],[123.55941816499998,-10.333754164999958],[123.53646894599999,-10.331963799999924],[123.515391472,-10.335544528999945],[123.502207879,-10.353204033999928],[123.49293053499999,-10.36077239399992],[123.481618686,-10.366143487999919],[123.47201582099999,-10.364922783999928],[123.46859785199999,-10.356215101999906],[123.47242272199999,-10.345147393999921],[123.48568769599999,-10.323907158999928],[123.493418816,-10.301934502999925],[123.49496504,-10.282159112999917],[123.492523634,-10.245212497999942],[123.49952233200005,-10.230726820999903],[123.515391472,-10.21306731599992],[123.547129754,-10.186781507999909],[123.597911004,-10.166680596999923],[123.61231530000005,-10.15642669099992],[123.620371941,-10.153008721999923],[123.656993035,-10.146416924999924],[123.66570071700004,-10.14316171699994],[123.74854576900006,-10.097751559999947],[123.76465905000006,-10.074965101999906],[123.74577884200002,-10.050388278999945],[123.72608483200004,-10.039239190999918],[123.70582115999999,-10.030694268999921],[123.68433678500001,-10.024997653999943],[123.660411004,-10.023044528999945],[123.63835696700002,-10.029961846999923],[123.60564212300002,-10.054294528999945],[123.588145379,-10.050388278999945],[123.577403191,-10.034356377999925],[123.57618248800004,-10.013929945999902],[123.58375084700002,-9.944024346999923],[123.59229576900006,-9.928806247999942],[123.62907962300001,-9.906345309999947],[123.65015709699999,-9.889418226999904],[123.660411004,-9.871270440999918],[123.66374759200002,-9.850844007999909],[123.66382897200002,-9.827243747999942],[123.660411004,-9.81658294099992],[123.645762566,-9.796807549999924],[123.64332116000001,-9.782810153999945],[123.64649498800007,-9.774997653999945],[123.65259850399998,-9.770277601999906],[123.65919030000006,-9.766534112999919],[123.66382897200002,-9.761651299999922],[123.66993248800006,-9.740492445999903],[123.671560092,-9.650160414999958],[123.67660566499998,-9.629652601999904],[123.68881269599999,-9.611423434999947],[123.711680535,-9.591566664999958],[123.74691816499998,-9.573988539999956],[123.75635826900005,-9.567071221999923],[123.78394616,-9.525811455999927],[123.793793165,-9.517022393999921],[123.801117384,-9.514418226999906],[123.809336785,-9.513278903999945],[123.821543816,-9.509047132999909],[123.82699628999998,-9.504652601999906],[123.83668053499999,-9.492608330999927],[123.842051629,-9.487969658999928],[123.84669030000006,-9.487237237999919],[123.85865319100002,-9.489027601999906],[123.86304772199999,-9.487969658999928],[123.89576256599999,-9.44052499799994],[123.90723717500006,-9.433282158999928],[123.91260826900007,-9.42595794099992],[123.95866946700002,-9.385511976999906],[123.97950280000006,-9.358493747999942],[123.99146569099999,-9.348077080999927],[124.01010175899997,-9.34392669099992],[124.03003990999999,-9.34197356599992],[124.06269046999996,-9.39787485699989],[124.090285685,-9.421542662999908],[124.12108483900006,-9.426917012999878],[124.133745565,-9.419268899999905],[124.15379602100003,-9.39188039199986],[124.16723189299998,-9.380614928999902],[124.18361332300005,-9.373896992999958],[124.197462606,-9.373173522999876],[124.21069177300004,-9.378857930999912],[124.22578129100013,-9.39157033299996],[124.23715010600009,-9.405212910999877],[124.24686527500005,-9.421542662999908],[124.253996623,-9.438699238999972],[124.25751062100002,-9.45544240299992],[124.25689050299998,-9.462883808999946],[124.25337650600004,-9.480557148999948],[124.25337650600004,-9.486448261999952],[124.25658044500007,-9.49936737099996],[124.25751062100002,-9.501227721999966],[124.26159305900005,-9.497920429999878],[124.27384037300008,-9.494923196999947],[124.29306400599998,-9.493062844999937],[124.3100655520001,-9.48872202599996],[124.32355310099999,-9.480350443999894],[124.33233809500004,-9.46660451199996],[124.33337162300002,-9.4571994019999],[124.32882409700002,-9.439836119999894],[124.32861739100007,-9.433014831999925],[124.332079712,-9.42547007199988],[124.34174320500003,-9.411827493999878],[124.34541223200003,-9.404179381999894],[124.34789270000007,-9.37462046299987],[124.3545589600001,-9.364181823999926],[124.35807295800007,-9.362218118999904],[124.36262048400006,-9.362011413999936],[124.37187056500002,-9.357050475999896],[124.40168786600013,-9.33183237699994],[124.42091149900003,-9.306924336999968],[124.42478723200006,-9.303513691999852],[124.42793949400001,-9.299482929999952],[124.431815227,-9.290801289999889],[124.436621134,-9.2558680219999],[124.45150394800012,-9.200574238999875],[124.45053144599997,-9.18018971099991]]],[[[127.21631920700005,-8.026950778999945],[127.226410352,-8.03923919099992],[127.23210696700002,-8.054294528999945],[127.23422285199999,-8.070407809999947],[127.23462975400001,-8.08652109199994],[127.22494550899997,-8.108575127999925],[127.20215905000006,-8.111260674999924],[127.15211022200002,-8.096937757999909],[127.15211022200002,-8.089532158999928],[127.157562696,-8.079359632999909],[127.15560957099999,-8.048435153999945],[127.15894616,-8.034926039999958],[127.17074629,-8.023858330999927],[127.18588300899998,-8.018731377999925],[127.20191491000001,-8.019789320999903],[127.21631920700005,-8.026950778999945]]],[[[124.30811608200004,-8.220472914999958],[124.29379316499998,-8.25798919099992],[124.29102623800006,-8.280531507999909],[124.29761803499999,-8.299248955999927],[124.29997806100002,-8.319268487999919],[124.28345787900001,-8.338555596999923],[124.24675540500002,-8.364515882999909],[124.23218834699999,-8.381280205999927],[124.21876061300007,-8.401543877999925],[124.208832227,-8.423028252999925],[124.20134524800001,-8.465590101999906],[124.191661004,-8.489353122999942],[124.17872155000005,-8.511325778999945],[124.16480553500001,-8.528252862999919],[124.14958743600003,-8.539320570999902],[124.12989342500006,-8.548272393999921],[124.10759524800002,-8.554131768999921],[124.08497155000006,-8.556329033999928],[124.05933678500001,-8.551527601999906],[124.05128014400006,-8.539157809999947],[124.054942254,-8.501071872999942],[124.05062910199999,-8.482110283999928],[124.03126061300007,-8.456475518999921],[124.02702884200002,-8.443291924999922],[124.018809441,-8.429945570999903],[123.99952233200004,-8.43027109199994],[123.97689863399998,-8.437920830999927],[123.93897545700005,-8.457777601999906],[123.93116295700005,-8.460056247999942],[123.92115319099999,-8.460625908999928],[123.90723717500006,-8.454847914999958],[123.91285240999999,-8.442152601999906],[123.92530358200005,-8.43027109199994],[123.931407097,-8.42595794099992],[123.96697024800004,-8.360772393999921],[123.985118035,-8.338311455999927],[124.02328535199997,-8.313409112999919],[124.044200066,-8.30486419099992],[124.058360222,-8.306084893999921],[124.06910241000001,-8.315606377999925],[124.07374108200007,-8.320977471999923],[124.08301842500005,-8.349867445999903],[124.08253014400006,-8.352471612999919],[124.08326256599999,-8.355889580999927],[124.09717858200005,-8.377211195999903],[124.10206139400006,-8.38144296699994],[124.10938561300006,-8.38494231599992],[124.11036217500006,-8.363702080999927],[124.12208092500008,-8.349786065999918],[124.15056399800001,-8.329766533999928],[124.18441816499997,-8.271172783999928],[124.20411217500005,-8.251722914999958],[124.231781446,-8.209079684999947],[124.24708092500006,-8.196221612999919],[124.251231316,-8.189141533999928],[124.25814863399997,-8.182061455999927],[124.270274285,-8.178887627999925],[124.28467858200005,-8.183282158999928],[124.29493248800004,-8.19394296699994],[124.30811608200004,-8.220472914999958]]],[[[125.134043816,-8.217054945999903],[125.13917076900006,-8.233575127999925],[125.13746178500001,-8.321384372999942],[125.13428795700005,-8.339043877999925],[125.123301629,-8.352308851999906],[125.09978274800002,-8.35759856599992],[125.078868035,-8.359307549999924],[125.02125084700002,-8.37127044099992],[124.93238366,-8.377373955999927],[124.76612389400006,-8.408461195999903],[124.72535241,-8.409763278999945],[124.67009524800002,-8.403090101999906],[124.66163170700004,-8.403415622999942],[124.650157097,-8.405450127999925],[124.63917076900006,-8.410251559999947],[124.61670983200004,-8.423109632999909],[124.59644615999999,-8.428155205999927],[124.57601972699999,-8.437432549999924],[124.55909264400006,-8.440687757999909],[124.54957116000001,-8.44589609199994],[124.54460696700002,-8.447035414999958],[124.53842207099999,-8.445000908999928],[124.52654056100002,-8.435642184999947],[124.52035566499998,-8.432793877999925],[124.50196373800007,-8.429782809999947],[124.495453321,-8.430352471999923],[124.48633873800007,-8.432793877999925],[124.460703972,-8.445082289999958],[124.45541425899997,-8.447035414999958],[124.449554884,-8.45029062299994],[124.44418378999998,-8.45720794099992],[124.43751061300004,-8.464288018999921],[124.42790774800004,-8.467461846999923],[124.418223504,-8.464613539999958],[124.40691165500002,-8.451104424999924],[124.39682050899998,-8.447035414999958],[124.39096113399998,-8.448907158999928],[124.37322024800001,-8.458265882999909],[124.37029056100002,-8.460625908999928],[124.35710696700002,-8.456312757999909],[124.35075931100002,-8.448825778999943],[124.34620201900006,-8.439222914999958],[124.33855228000003,-8.429375908999928],[124.33350670700004,-8.413018487999919],[124.345388217,-8.396416924999924],[124.37647545700005,-8.37127044099992],[124.38607832099999,-8.358330987999919],[124.40674889400006,-8.320570570999903],[124.41049238399997,-8.306084893999921],[124.47266686300004,-8.268812757999909],[124.50440514400007,-8.264092705999927],[124.51417076900007,-8.261407158999928],[124.51929772200002,-8.257500908999928],[124.532969597,-8.243829033999928],[124.54297936300004,-8.237888278999945],[124.547618035,-8.230726820999903],[124.547618035,-8.223728122999942],[124.53777103,-8.220472914999958],[124.51563561300006,-8.225681247999942],[124.49317467500005,-8.233493747999942],[124.42123457099999,-8.267510674999924],[124.39242597699997,-8.265232028999945],[124.39682050899998,-8.220472914999958],[124.40552819100002,-8.21111419099992],[124.41968834699999,-8.202243747999942],[124.43279056100003,-8.191094658999928],[124.43848717500006,-8.175876559999947],[124.44190514400006,-8.162041924999924],[124.45069420700005,-8.14902109199994],[124.462657097,-8.138604424999924],[124.47527103000003,-8.132582289999958],[124.49634850400001,-8.138604424999924],[124.54542076900005,-8.130140882999909],[124.56869550899998,-8.13103606599992],[124.58570397200002,-8.145765882999909],[124.58920332099999,-8.190606377999925],[124.60303795700005,-8.206801039999958],[124.64340253999998,-8.180433851999906],[124.66504967500005,-8.169691664999958],[124.68799889400005,-8.165215752999925],[124.77361087300001,-8.158949476999906],[124.898285352,-8.16814544099992],[124.93816165500002,-8.158949476999906],[124.94532311300006,-8.154554945999903],[124.94776451900006,-8.151136976999906],[124.95232181100002,-8.149834893999921],[124.966075066,-8.151543877999925],[124.97087649800001,-8.154229424999924],[124.97624759200002,-8.158868096999923],[124.984222852,-8.163262627999925],[124.99675540500003,-8.165215752999925],[125.04656009200002,-8.157810153999945],[125.08082116000001,-8.159437757999909],[125.08692467500006,-8.15878671699994],[125.09253990999999,-8.161553643999921],[125.10320071700004,-8.172621351999906],[125.12452233200005,-8.205824476999906],[125.134043816,-8.217054945999903]]],[[[126.83676191499997,-7.726332289999958],[126.84001712300002,-7.739434502999925],[126.839203321,-7.74822356599992],[126.83334394599999,-7.758070570999903],[126.823496941,-7.762383721999924],[126.81348717500006,-7.758070570999903],[126.802989129,-7.751153252999925],[126.79232832099999,-7.747491143999921],[126.74903405000008,-7.754001559999947],[126.727875196,-7.754652601999906],[126.71338951900006,-7.747491143999921],[126.63135826900005,-7.775485934999947],[126.62045332099999,-7.781345309999948],[126.597341342,-7.802178643999922],[126.58936608200007,-7.806247653999946],[126.56836998800004,-7.814141533999928],[126.55933678500001,-7.819919528999944],[126.50440514400005,-7.888116143999921],[126.50220787899998,-7.894789320999903],[126.504161004,-7.903090101999906],[126.504242384,-7.912367445999903],[126.49732506599999,-7.922539971999922],[126.48812910199997,-7.932712497999941],[126.47527103000003,-7.955336195999902],[126.46615644599999,-7.966566664999958],[126.45476321700004,-7.958184502999925],[126.43327884200002,-7.936700127999925],[126.42188561300004,-7.932549737999919],[126.37378990999999,-7.932549737999919],[126.35027103000002,-7.929294528999946],[126.300547722,-7.915215752999925],[126.27442467500005,-7.911879164999958],[126.18978925899998,-7.923516533999928],[126.16895592500005,-7.915704033999928],[126.155528191,-7.901625257999909],[126.13689212300002,-7.888604424999924],[126.114512566,-7.88298919099992],[126.090098504,-7.891534112999919],[126.07496178499999,-7.883884372999942],[126.053965691,-7.884698174999924],[125.99878990999999,-7.893731377999925],[125.98031660199999,-7.903497002999925],[125.969411655,-7.905857028999945],[125.94613691499997,-7.906019789999958],[125.93506920700005,-7.907891533999927],[125.92505944099999,-7.911879164999958],[125.92400149800002,-7.915134372999942],[125.92139733200007,-7.927504164999958],[125.91814212300002,-7.932549737999919],[125.91285240999999,-7.934991143999921],[125.90202884200002,-7.937269789999958],[125.897715691,-7.939222914999958],[125.81202233200005,-8.007582289999958],[125.789317254,-8.016045830999927],[125.774180535,-8.007582289999958],[125.77588951900005,-7.991794528999945],[125.78630618600002,-7.971123955999926],[125.79818769599999,-7.953220309999947],[125.80518639400007,-7.945489190999919],[125.808441602,-7.934258721999922],[125.808360222,-7.864190362999919],[125.814219597,-7.850274346999923],[125.82504316499997,-7.837009372999942],[125.83887780000005,-7.827080987999918],[125.853282097,-7.823337497999942],[125.86980228000002,-7.814711195999903],[125.876231316,-7.794691664999957],[125.87891686300007,-7.771905205999927],[125.88404381600002,-7.754327080999928],[125.88803144599997,-7.751885674999924],[125.902598504,-7.747247002999925],[125.90821373800006,-7.744073174999925],[125.91439863399998,-7.736586195999903],[125.921153191,-7.721123955999928],[125.94792728000002,-7.67831796699994],[125.95720462300001,-7.667901299999923],[125.96892337300002,-7.660088799999924],[125.98064212300002,-7.658623955999927],[125.99268639400007,-7.661553643999921],[126.022715691,-7.676039320999903],[126.03126061300004,-7.682305596999924],[126.03492272199999,-7.689141533999928],[126.04615319100002,-7.693454684999948],[126.20313561300004,-7.71347421699994],[126.21485436300006,-7.709405205999928],[126.245371941,-7.691176039999958],[126.26148522200002,-7.68613046699994],[126.28003991,-7.688083591999939],[126.304372592,-7.693454684999948],[126.328379754,-7.695733330999927],[126.34644616000001,-7.689141533999928],[126.39795983200004,-7.643812757999909],[126.45240319099999,-7.619561455999928],[126.48454837300001,-7.597263278999945],[126.50375410199997,-7.59042734199994],[126.60352623800004,-7.569431247999942],[126.61744225400001,-7.562107028999944],[126.62696373800006,-7.559991143999921],[126.63135826900005,-7.565362237999919],[126.63021894599999,-7.587172132999909],[126.63086998800006,-7.598565362999919],[126.634532097,-7.606866143999921],[126.64698326900005,-7.616957289999958],[126.69271894599997,-7.637627862999918],[126.70313561300006,-7.647719007999908],[126.71159915500002,-7.658868096999923],[126.72169030000006,-7.668064059999947],[126.737559441,-7.671807549999924],[126.79883873800006,-7.664239190999919],[126.81324303499999,-7.668633721999923],[126.82162519599999,-7.68027109199994],[126.82911217500006,-7.695489190999921],[126.83432050899997,-7.711846612999919],[126.83676191499997,-7.726332289999958]]]]}}
